CCSDS_OMM_VERS = 2.0
CREATION_DATE  = 
ORIGINATOR     = 

OBJECT_NAME    = SL-3 R/B
OBJECT_ID      = 1982-079B
CENTER_NAME    = EARTH
REF_FRAME      = TEME
TIME_SYSTEM    = UTC
MEAN_ELEMENT_THEORY = SGP/SGP4

EPOCH          = 2026-03-10T12:28:46.250400
MEAN_MOTION    = 15.24815523
ECCENTRICITY   = .0025062
INCLINATION    = 81.1480
RA_OF_ASC_NODE = 192.0967
ARG_OF_PERICENTER = 162.0635
MEAN_ANOMALY   = 198.1489

EPHEMERIS_TYPE = 0
CLASSIFICATION_TYPE = U
NORAD_CAT_ID   = 13403
ELEMENT_SET_NO = 999
REV_AT_EPOCH   = 37782
BSTAR          = .31647E-3
MEAN_MOTION_DOT = .7949E-4
MEAN_MOTION_DDOT = 0

CCSDS_OMM_VERS = 2.0
CREATION_DATE  = 
ORIGINATOR     = 

OBJECT_NAME    = SL-14 R/B
OBJECT_ID      = 1982-092B
CENTER_NAME    = EARTH
REF_FRAME      = TEME
TIME_SYSTEM    = UTC
MEAN_ELEMENT_THEORY = SGP/SGP4

EPOCH          = 2026-03-10T05:57:56.786688
MEAN_MOTION    = 14.86666977
ECCENTRICITY   = .001898
INCLINATION    = 82.5694
RA_OF_ASC_NODE = 140.8769
ARG_OF_PERICENTER = 301.5616
MEAN_ANOMALY   = 115.7311

EPHEMERIS_TYPE = 0
CLASSIFICATION_TYPE = U
NORAD_CAT_ID   = 13553
ELEMENT_SET_NO = 999
REV_AT_EPOCH   = 32901
BSTAR          = .59104E-4
MEAN_MOTION_DOT = .551E-5
MEAN_MOTION_DDOT = 0

CCSDS_OMM_VERS = 2.0
CREATION_DATE  = 
ORIGINATOR     = 

OBJECT_NAME    = SL-3 R/B
OBJECT_ID      = 1983-010B
CENTER_NAME    = EARTH
REF_FRAME      = TEME
TIME_SYSTEM    = UTC
MEAN_ELEMENT_THEORY = SGP/SGP4

EPOCH          = 2026-03-10T06:41:15.215712
MEAN_MOTION    = 15.46381546
ECCENTRICITY   = .0017941
INCLINATION    = 81.1059
RA_OF_ASC_NODE = 1.5253
ARG_OF_PERICENTER = 49.1452
MEAN_ANOMALY   = 311.1344

EPHEMERIS_TYPE = 0
CLASSIFICATION_TYPE = U
NORAD_CAT_ID   = 13819
ELEMENT_SET_NO = 999
REV_AT_EPOCH   = 35803
BSTAR          = .40051E-3
MEAN_MOTION_DOT = .19966E-3
MEAN_MOTION_DDOT = 0

CCSDS_OMM_VERS = 2.0
CREATION_DATE  = 
ORIGINATOR     = 

OBJECT_NAME    = SL-3 R/B
OBJECT_ID      = 1983-075B
CENTER_NAME    = EARTH
REF_FRAME      = TEME
TIME_SYSTEM    = UTC
MEAN_ELEMENT_THEORY = SGP/SGP4

EPOCH          = 2026-03-10T11:13:22.748160
MEAN_MOTION    = 15.38440575
ECCENTRICITY   = .0020199
INCLINATION    = 97.6147
RA_OF_ASC_NODE = 74.0742
ARG_OF_PERICENTER = 222.9243
MEAN_ANOMALY   = 137.0426

EPHEMERIS_TYPE = 0
CLASSIFICATION_TYPE = U
NORAD_CAT_ID   = 14208
ELEMENT_SET_NO = 999
REV_AT_EPOCH   = 33027
BSTAR          = .35731E-3
MEAN_MOTION_DOT = .13561E-3
MEAN_MOTION_DDOT = 0

CCSDS_OMM_VERS = 2.0
CREATION_DATE  = 
ORIGINATOR     = 

OBJECT_NAME    = COSMOS 1536
OBJECT_ID      = 1984-013A
CENTER_NAME    = EARTH
REF_FRAME      = TEME
TIME_SYSTEM    = UTC
MEAN_ELEMENT_THEORY = SGP/SGP4

EPOCH          = 2026-03-10T12:11:23.654688
MEAN_MOTION    = 15.23836663
ECCENTRICITY   = .001247
INCLINATION    = 82.5430
RA_OF_ASC_NODE = 107.0373
ARG_OF_PERICENTER = 279.9632
MEAN_ANOMALY   = 80.0197

EPHEMERIS_TYPE = 0
CLASSIFICATION_TYPE = U
NORAD_CAT_ID   = 14699
ELEMENT_SET_NO = 999
REV_AT_EPOCH   = 27274
BSTAR          = .30144E-3
MEAN_MOTION_DOT = .7311E-4
MEAN_MOTION_DDOT = 0

CCSDS_OMM_VERS = 2.0
CREATION_DATE  = 
ORIGINATOR     = 

OBJECT_NAME    = SL-14 R/B
OBJECT_ID      = 1984-027B
CENTER_NAME    = EARTH
REF_FRAME      = TEME
TIME_SYSTEM    = UTC
MEAN_ELEMENT_THEORY = SGP/SGP4

EPOCH          = 2026-03-10T12:01:43.146048
MEAN_MOTION    = 14.85977502
ECCENTRICITY   = .0017282
INCLINATION    = 82.5387
RA_OF_ASC_NODE = 244.2513
ARG_OF_PERICENTER = 335.0669
MEAN_ANOMALY   = 24.9711

EPHEMERIS_TYPE = 0
CLASSIFICATION_TYPE = U
NORAD_CAT_ID   = 14820
ELEMENT_SET_NO = 999
REV_AT_EPOCH   = 24775
BSTAR          = .70847E-4
MEAN_MOTION_DOT = .644E-5
MEAN_MOTION_DDOT = 0

CCSDS_OMM_VERS = 2.0
CREATION_DATE  = 
ORIGINATOR     = 

OBJECT_NAME    = SL-8 R/B
OBJECT_ID      = 1985-006B
CENTER_NAME    = EARTH
REF_FRAME      = TEME
TIME_SYSTEM    = UTC
MEAN_ELEMENT_THEORY = SGP/SGP4

EPOCH          = 2026-03-10T11:38:32.590752
MEAN_MOTION    = 14.37783639
ECCENTRICITY   = .0018413
INCLINATION    = 74.0432
RA_OF_ASC_NODE = 259.6847
ARG_OF_PERICENTER = 177.3414
MEAN_ANOMALY   = 203.3046

EPHEMERIS_TYPE = 0
CLASSIFICATION_TYPE = U
NORAD_CAT_ID   = 15483
ELEMENT_SET_NO = 999
REV_AT_EPOCH   = 15414
BSTAR          = .13535E-3
MEAN_MOTION_DOT = .382E-5
MEAN_MOTION_DDOT = 0

CCSDS_OMM_VERS = 2.0
CREATION_DATE  = 
ORIGINATOR     = 

OBJECT_NAME    = SL-12 R/B(2)
OBJECT_ID      = 1985-042D
CENTER_NAME    = EARTH
REF_FRAME      = TEME
TIME_SYSTEM    = UTC
MEAN_ELEMENT_THEORY = SGP/SGP4

EPOCH          = 2026-03-10T11:27:02.933856
MEAN_MOTION    = 14.21982545
ECCENTRICITY   = .0033191
INCLINATION    = 71.1062
RA_OF_ASC_NODE = 86.0648
ARG_OF_PERICENTER = 126.8397
MEAN_ANOMALY   = 341.0452

EPHEMERIS_TYPE = 0
CLASSIFICATION_TYPE = U
NORAD_CAT_ID   = 15772
ELEMENT_SET_NO = 999
REV_AT_EPOCH   = 11450
BSTAR          = .50554E-4
MEAN_MOTION_DOT = .65E-6
MEAN_MOTION_DDOT = 0

CCSDS_OMM_VERS = 2.0
CREATION_DATE  = 
ORIGINATOR     = 

OBJECT_NAME    = SL-14 R/B
OBJECT_ID      = 1985-069B
CENTER_NAME    = EARTH
REF_FRAME      = TEME
TIME_SYSTEM    = UTC
MEAN_ELEMENT_THEORY = SGP/SGP4

EPOCH          = 2026-03-10T08:25:34.868064
MEAN_MOTION    = 14.86434174
ECCENTRICITY   = .0018533
INCLINATION    = 82.5287
RA_OF_ASC_NODE = 24.3110
ARG_OF_PERICENTER = 185.5046
MEAN_ANOMALY   = 174.5970

EPHEMERIS_TYPE = 0
CLASSIFICATION_TYPE = U
NORAD_CAT_ID   = 15945
ELEMENT_SET_NO = 999
REV_AT_EPOCH   = 17293
BSTAR          = .78531E-4
MEAN_MOTION_DOT = .72E-5
MEAN_MOTION_DDOT = 0

CCSDS_OMM_VERS = 2.0
CREATION_DATE  = 
ORIGINATOR     = 

OBJECT_NAME    = SL-16 R/B
OBJECT_ID      = 1985-097B
CENTER_NAME    = EARTH
REF_FRAME      = TEME
TIME_SYSTEM    = UTC
MEAN_ELEMENT_THEORY = SGP/SGP4

EPOCH          = 2026-03-10T11:41:31.007616
MEAN_MOTION    = 14.16598609
ECCENTRICITY   = .0009907
INCLINATION    = 71.0027
RA_OF_ASC_NODE = 138.8757
ARG_OF_PERICENTER = 258.8463
MEAN_ANOMALY   = 194.2290

EPHEMERIS_TYPE = 0
CLASSIFICATION_TYPE = U
NORAD_CAT_ID   = 16182
ELEMENT_SET_NO = 999
REV_AT_EPOCH   = 8734
BSTAR          = -.73453E-4
MEAN_MOTION_DOT = -.195E-5
MEAN_MOTION_DDOT = 0

CCSDS_OMM_VERS = 2.0
CREATION_DATE  = 
ORIGINATOR     = 

OBJECT_NAME    = SL-14 R/B
OBJECT_ID      = 1986-006B
CENTER_NAME    = EARTH
REF_FRAME      = TEME
TIME_SYSTEM    = UTC
MEAN_ELEMENT_THEORY = SGP/SGP4

EPOCH          = 2026-03-10T12:43:02.227296
MEAN_MOTION    = 14.86816321
ECCENTRICITY   = .007505
INCLINATION    = 82.5234
RA_OF_ASC_NODE = 258.9462
ARG_OF_PERICENTER = 269.9416
MEAN_ANOMALY   = 89.3201

EPHEMERIS_TYPE = 0
CLASSIFICATION_TYPE = U
NORAD_CAT_ID   = 16496
ELEMENT_SET_NO = 999
REV_AT_EPOCH   = 14933
BSTAR          = .85861E-4
MEAN_MOTION_DOT = .83E-5
MEAN_MOTION_DDOT = 0

CCSDS_OMM_VERS = 2.0
CREATION_DATE  = 
ORIGINATOR     = 

OBJECT_NAME    = COSMOS 1743
OBJECT_ID      = 1986-034A
CENTER_NAME    = EARTH
REF_FRAME      = TEME
TIME_SYSTEM    = UTC
MEAN_ELEMENT_THEORY = SGP/SGP4

EPOCH          = 2026-03-10T11:26:27.611808
MEAN_MOTION    = 15.58609577
ECCENTRICITY   = .0001568
INCLINATION    = 82.5298
RA_OF_ASC_NODE = 73.0052
ARG_OF_PERICENTER = 285.9022
MEAN_ANOMALY   = 74.2061

EPHEMERIS_TYPE = 0
CLASSIFICATION_TYPE = U
NORAD_CAT_ID   = 16719
ELEMENT_SET_NO = 999
REV_AT_EPOCH   = 18037
BSTAR          = .51245E-3
MEAN_MOTION_DOT = .39418E-3
MEAN_MOTION_DDOT = 0

