SL-3 R/B                
1 13403U 82079B   26069.51997975  .00007949  00000+0  31647-3 0  9994
2 13403  81.1480 192.0967 0025062 162.0635 198.1489 15.24815523377820
SL-14 R/B               
1 13553U 82092B   26069.24857392  .00000551  00000+0  59104-4 0  9994
2 13553  82.5694 140.8769 0018980 301.5616 115.7311 14.86666977329010
SL-3 R/B                
1 13819U 83010B   26069.27864833  .00019966  00000+0  40051-3 0  9991
2 13819  81.1059   1.5253 0017941  49.1452 311.1344 15.46381546358030
SL-3 R/B                
1 14208U 83075B   26069.46762440  .00013561  00000+0  35731-3 0  9991
2 14208  97.6147  74.0742 0020199 222.9243 137.0426 15.38440575330270
COSMOS 1536             
1 14699U 84013A   26069.50791267  .00007311  00000+0  30144-3 0  9991
2 14699  82.5430 107.0373 0012470 279.9632  80.0197 15.23836663272746
SL-14 R/B               
1 14820U 84027B   26069.50119382  .00000644  00000+0  70847-4 0  9991
2 14820  82.5387 244.2513 0017282 335.0669  24.9711 14.85977502247750
SL-8 R/B                
1 15483U 85006B   26069.48509943  .00000382  00000+0  13535-3 0  9997
2 15483  74.0432 259.6847 0018413 177.3414 203.3046 14.37783639154142
SL-12 R/B(2)            
1 15772U 85042D   26069.47711729  .00000065  00000+0  50554-4 0  9995
2 15772  71.1062  86.0648 0033191 126.8397 341.0452 14.21982545114507
SL-14 R/B               
1 15945U 85069B   26069.35109801  .00000720  00000+0  78531-4 0  9998
2 15945  82.5287  24.3110 0018533 185.5046 174.5970 14.86434174172935
SL-16 R/B               
1 16182U 85097B   26069.48716444 -.00000195  00000+0 -73453-4 0  9990
2 16182  71.0027 138.8757 0009907 258.8463 194.2290 14.16598609 87345
SL-14 R/B               
1 16496U 86006B   26069.52988689  .00000830  00000+0  85861-4 0  9996
2 16496  82.5234 258.9462 0075050 269.9416  89.3201 14.86816321149335
COSMOS 1743             
1 16719U 86034A   26069.47670847  .00039418  00000+0  51245-3 0  9995
2 16719  82.5298  73.0052 0001568 285.9022  74.2061 15.58609577180377
